[
    {
        "Altitude(m)": 710567.5235858609,
        "Argument of Periapsis(deg)": 0.006834072711976239,
        "Eccentricity": 0.0,
        "Inclination(deg)": 45.0,
        "Latitude(deg)": -26.995411620304235,
        "Longitude(deg)": 79.99170116114558,
        "Mean Anomaly(deg)": -140.3527700115115,
        "RAAN(deg)": 329.99354883512507,
        "Satellite Name": "Constellation 1 1465",
        "Satellite Number": 1465,
        "Semi-Major Axis(m)": 7083131.272910544,
        "Time(s)": 114
    },
    {
        "Altitude(m)": 710581.3698717182,
        "Argument of Periapsis(deg)": 0.006894020718221645,
        "Eccentricity": 0.0,
        "Inclination(deg)": 45.0,
        "Latitude(deg)": -27.032527148264233,
        "Longitude(deg)": 80.04143204909066,
        "Mean Anomaly(deg)": -140.29206887126156,
        "RAAN(deg)": 329.99349224595943,
        "Satellite Name": "Constellation 1 1465",
        "Satellite Number": 1465,
        "Semi-Major Axis(m)": 7083131.272910544,
        "Time(s)": 115
    },
    {
        "Altitude(m)": 710595.2160088755,
        "Argument of Periapsis(deg)": 0.006953968724467052,
        "Eccentricity": 0.0,
        "Inclination(deg)": 45.0,
        "Latitude(deg)": -27.06962179682553,
        "Longitude(deg)": 80.09119819435313,
        "Mean Anomaly(deg)": -140.23136773101174,
        "RAAN(deg)": 329.9934356567939,
        "Satellite Name": "Constellation 1 1465",
        "Satellite Number": 1465,
        "Semi-Major Axis(m)": 7083131.272910544,
        "Time(s)": 116
    },
    {
        "Altitude(m)": 710609.0619495751,
        "Argument of Periapsis(deg)": 0.007013916730712457,
        "Eccentricity": 0.0,
        "Inclination(deg)": 45.0,
        "Latitude(deg)": -27.1066955198387,
        "Longitude(deg)": 80.14099965687102,
        "Mean Anomaly(deg)": -140.17066659076175,
        "RAAN(deg)": 329.9933790676283,
        "Satellite Name": "Constellation 1 1465",
        "Satellite Number": 1465,
        "Semi-Major Axis(m)": 7083131.272910544,
        "Time(s)": 117
    },
    {
        "Altitude(m)": 710622.9076460751,
        "Argument of Periapsis(deg)": 0.007073864736957864,
        "Eccentricity": 0.0,
        "Inclination(deg)": 45.0,
        "Latitude(deg)": -27.143748271087148,
        "Longitude(deg)": 80.19083649656773,
        "Mean Anomaly(deg)": -140.10996545051194,
        "RAAN(deg)": 329.9933224784628,
        "Satellite Name": "Constellation 1 1465",
        "Satellite Number": 1465,
        "Semi-Major Axis(m)": 7083131.272910544,
        "Time(s)": 118
    },
    {
        "Altitude(m)": 710636.7530506017,
        "Argument of Periapsis(deg)": 0.0071338127432032696,
        "Eccentricity": 0.0,
        "Inclination(deg)": 45.0,
        "Latitude(deg)": -27.180780004287712,
        "Longitude(deg)": 80.24070860525538,
        "Mean Anomaly(deg)": -140.04926431026198,
        "RAAN(deg)": 329.9932658892972,
        "Satellite Name": "Constellation 1 1465",
        "Satellite Number": 1465,
        "Semi-Major Axis(m)": 7083131.272910544,
        "Time(s)": 119
    },
    {
        "Altitude(m)": 710650.5981153758,
        "Argument of Periapsis(deg)": 0.007193760749448674,
        "Eccentricity": 0.0,
        "Inclination(deg)": 45.0,
        "Latitude(deg)": -27.217790673089606,
        "Longitude(deg)": 80.29061637902119,
        "Mean Anomaly(deg)": -139.98856317001207,
        "RAAN(deg)": 329.9932093001316,
        "Satellite Name": "Constellation 1 1465",
        "Satellite Number": 1465,
        "Semi-Major Axis(m)": 7083131.272910544,
        "Time(s)": 120
    },
    {
        "Altitude(m)": 710664.442792616,
        "Argument of Periapsis(deg)": 0.007253708755694079,
        "Eccentricity": 0.0,
        "Inclination(deg)": 45.0,
        "Latitude(deg)": -27.254780231075323,
        "Longitude(deg)": 80.34055970964641,
        "Mean Anomaly(deg)": -139.92786202976222,
        "RAAN(deg)": 329.99315271096606,
        "Satellite Name": "Constellation 1 1465",
        "Satellite Number": 1465,
        "Semi-Major Axis(m)": 7083131.272910544,
        "Time(s)": 121
    },
    {
        "Altitude(m)": 710678.2870345183,
        "Argument of Periapsis(deg)": 0.0073136567619394854,
        "Eccentricity": 0.0,
        "Inclination(deg)": 45.0,
        "Latitude(deg)": -27.291748631760065,
        "Longitude(deg)": 80.39053865699296,
        "Mean Anomaly(deg)": -139.86716088951238,
        "RAAN(deg)": 329.9930961218005,
        "Satellite Name": "Constellation 1 1465",
        "Satellite Number": 1465,
        "Semi-Major Axis(m)": 7083131.272910544,
        "Time(s)": 122
    },
    {
        "Altitude(m)": 710692.1307932795,
        "Argument of Periapsis(deg)": 0.0073736047681848904,
        "Eccentricity": 0.0,
        "Inclination(deg)": 45.0,
        "Latitude(deg)": -27.328695828591783,
        "Longitude(deg)": 80.44055328090641,
        "Mean Anomaly(deg)": -139.80645974926244,
        "RAAN(deg)": 329.99303953263495,
        "Satellite Name": "Constellation 1 1465",
        "Satellite Number": 1465,
        "Semi-Major Axis(m)": 7083131.272910544,
        "Time(s)": 123
    },
    {
        "Altitude(m)": 710705.974021081,
        "Argument of Periapsis(deg)": 0.007433552774430298,
        "Eccentricity": 0.0,
        "Inclination(deg)": 45.0,
        "Latitude(deg)": -27.365621774950874,
        "Longitude(deg)": 80.49060364121517,
        "Mean Anomaly(deg)": -139.74575860901246,
        "RAAN(deg)": 329.99298294346937,
        "Satellite Name": "Constellation 1 1465",
        "Satellite Number": 1465,
        "Semi-Major Axis(m)": 7083131.272910544,
        "Time(s)": 124
    },
    {
        "Altitude(m)": 710719.8166700976,
        "Argument of Periapsis(deg)": 0.007493500780675703,
        "Eccentricity": 0.0,
        "Inclination(deg)": 45.0,
        "Latitude(deg)": -27.402526424150356,
        "Longitude(deg)": 80.5406897977303,
        "Mean Anomaly(deg)": -139.68505746876264,
        "RAAN(deg)": 329.9929263543038,
        "Satellite Name": "Constellation 1 1465",
        "Satellite Number": 1465,
        "Semi-Major Axis(m)": 7083131.272910544,
        "Time(s)": 125
    },
    {
        "Altitude(m)": 710733.6586924907,
        "Argument of Periapsis(deg)": 0.007553448786921108,
        "Eccentricity": 0.0,
        "Inclination(deg)": 45.0,
        "Latitude(deg)": -27.439409729435905,
        "Longitude(deg)": 80.59081164214824,
        "Mean Anomaly(deg)": -139.6243563285127,
        "RAAN(deg)": 329.9928697651382,
        "Satellite Name": "Constellation 1 1465",
        "Satellite Number": 1465,
        "Semi-Major Axis(m)": 7083131.272910544,
        "Time(s)": 126
    },
    {
        "Altitude(m)": 710747.5000404152,
        "Argument of Periapsis(deg)": 0.007613396793166514,
        "Eccentricity": 0.0,
        "Inclination(deg)": 45.0,
        "Latitude(deg)": -27.476271643985225,
        "Longitude(deg)": 80.64096957043809,
        "Mean Anomaly(deg)": -139.56365518826277,
        "RAAN(deg)": 329.99281317597263,
        "Satellite Name": "Constellation 1 1465",
        "Satellite Number": 1465,
        "Semi-Major Axis(m)": 7083131.272910544,
        "Time(s)": 127
    },
    {
        "Altitude(m)": 710761.340666021,
        "Argument of Periapsis(deg)": 0.007673344799411918,
        "Eccentricity": 0.0,
        "Inclination(deg)": 45.0,
        "Latitude(deg)": -27.51311212090849,
        "Longitude(deg)": 80.69116347425893,
        "Mean Anomaly(deg)": -139.5029540480129,
        "RAAN(deg)": 329.9927565868071,
        "Satellite Name": "Constellation 1 1465",
        "Satellite Number": 1465,
        "Semi-Major Axis(m)": 7083131.272910544,
        "Time(s)": 128
    },
    {
        "Altitude(m)": 710775.1805214421,
        "Argument of Periapsis(deg)": 0.007733292805657325,
        "Eccentricity": 0.0,
        "Inclination(deg)": 45.0,
        "Latitude(deg)": -27.549931113248263,
        "Longitude(deg)": 80.74139341334816,
        "Mean Anomaly(deg)": -139.44225290776305,
        "RAAN(deg)": 329.9926999976415,
        "Satellite Name": "Constellation 1 1465",
        "Satellite Number": 1465,
        "Semi-Major Axis(m)": 7083131.272910544,
        "Time(s)": 129
    },
    {
        "Altitude(m)": 710789.0195588068,
        "Argument of Periapsis(deg)": 0.00779324081190273,
        "Eccentricity": 0.0,
        "Inclination(deg)": 45.0,
        "Latitude(deg)": -27.58672857397917,
        "Longitude(deg)": 80.79165944742347,
        "Mean Anomaly(deg)": -139.38155176751312,
        "RAAN(deg)": 329.99264340847594,
        "Satellite Name": "Constellation 1 1465",
        "Satellite Number": 1465,
        "Semi-Major Axis(m)": 7083131.272910544,
        "Time(s)": 130
    },
    {
        "Altitude(m)": 710802.8577302354,
        "Argument of Periapsis(deg)": 0.007853188818148135,
        "Eccentricity": 0.0,
        "Inclination(deg)": 45.0,
        "Latitude(deg)": -27.623504456007794,
        "Longitude(deg)": 80.84196163618212,
        "Mean Anomaly(deg)": -139.3208506272632,
        "RAAN(deg)": 329.99258681931036,
        "Satellite Name": "Constellation 1 1465",
        "Satellite Number": 1465,
        "Semi-Major Axis(m)": 7083131.272910544,
        "Time(s)": 131
    },
    {
        "Altitude(m)": 710816.6949878384,
        "Argument of Periapsis(deg)": 0.007913136824393542,
        "Eccentricity": 0.0,
        "Inclination(deg)": 45.0,
        "Latitude(deg)": -27.660258712172865,
        "Longitude(deg)": 80.89230003930113,
        "Mean Anomaly(deg)": -139.26014948701336,
        "RAAN(deg)": 329.9925302301448,
        "Satellite Name": "Constellation 1 1465",
        "Satellite Number": 1465,
        "Semi-Major Axis(m)": 7083131.272910544,
        "Time(s)": 132
    }
]